{"type": "FeatureCollection", "features": [ {"type": "Feature", "properties": {"norad_id": 32241, "name": "FENGYUN 1C DEB", "group": "fengyun-1c-debris", "lat": -66.05747545662503, "lon": 34.42637479454055, "alt_km": 750.9878033263158, "timestamp": "2025-12-09T23:33:24.141112+00:00", "meta": {"OBJECT_NAME": "FENGYUN 1C DEB", "OBJECT_ID": "1999-025CWP", "EPOCH": "2025-12-07T19:46:08.173344", "MEAN_MOTION": 14.28684747, "ECCENTRICITY": 0.01462273, "INCLINATION": 99.0774, "RA_OF_ASC_NODE": 11.0781, "ARG_OF_PERICENTER": 237.6639, "MEAN_ANOMALY": 121.0314, "EPHEMERIS_TYPE": 0, "CLASSIFICATION_TYPE": "U", "NORAD_CAT_ID": 32241, "ELEMENT_SET_NO": 999, "REV_AT_EPOCH": 93753, "BSTAR": 0.0026184571, "MEAN_MOTION_DOT": 7.341e-05, "MEAN_MOTION_DDOT": 0}, "tle": {"line1": "1 32241U 99025CWP 25341.82370571  .00007341  00000+0  26185-2 0  9993", "line2": "2 32241  99.0774  11.0781 0146227 237.6639 121.0314 14.28684747937536"}}, "geometry": {"type": "Point", "coordinates": [34.42637479454055, -66.05747545662503]}}, {"type": "Feature", "properties": {"norad_id": 32243, "name": "FENGYUN 1C DEB", "group": "fengyun-1c-debris", "lat": 63.93294142530565, "lon": -153.85525138742705, "alt_km": 683.7292114435886, "timestamp": "2025-12-09T23:33:24.141122+00:00", "meta": {"OBJECT_NAME": "FENGYUN 1C DEB", "OBJECT_ID": "1999-025CWR", "EPOCH": "2025-12-09T07:37:54.791328", "MEAN_MOTION": 14.04559062, "ECCENTRICITY": 0.0269715, "INCLINATION": 98.27, "RA_OF_ASC_NODE": 8.2429, "ARG_OF_PERICENTER": 133.2082, "MEAN_ANOMALY": 229.196, "EPHEMERIS_TYPE": 0, "CLASSIFICATION_TYPE": "U", "NORAD_CAT_ID": 32243, "ELEMENT_SET_NO": 999, "REV_AT_EPOCH": 93540, "BSTAR": 0.0022049, "MEAN_MOTION_DOT": 4.839e-05, "MEAN_MOTION_DDOT": 0}, "tle": {"line1": "1 32243U 99025CWR 25343.31799527  .00004839  00000+0  22049-2 0  9991", "line2": "2 32243  98.2700   8.2429 0269715 133.2082 229.1960 14.04559062935402"}}, "geometry": {"type": "Point", "coordinates": [-153.85525138742705, 63.93294142530565]}}, {"type": "Feature", "properties": {"norad_id": 32245, "name": "FENGYUN 1C DEB", "group": "fengyun-1c-debris", "lat": 27.39013178349536, "lon": 175.30569439133035, "alt_km": 583.2123280060914, "timestamp": "2025-12-09T23:33:24.141132+00:00", "meta": {"OBJECT_NAME": "FENGYUN 1C DEB", "OBJECT_ID": "1999-025CWT", "EPOCH": "2025-12-08T06:47:00.083040", "MEAN_MOTION": 14.76843452, "ECCENTRICITY": 0.00978135, "INCLINATION": 98.6545, "RA_OF_ASC_NODE": 178.0112, "ARG_OF_PERICENTER": 355.9473, "MEAN_ANOMALY": 4.0932, "EPHEMERIS_TYPE": 0, "CLASSIFICATION_TYPE": "U", "NORAD_CAT_ID": 32245, "ELEMENT_SET_NO": 999, "REV_AT_EPOCH": 66040, "BSTAR": 0.0014541087, "MEAN_MOTION_DOT": 0.00011, "MEAN_MOTION_DDOT": 0}, "tle": {"line1": "1 32245U 99025CWT 25342.28263985  .00011000  00000+0  14541-2 0  9998", "line2": "2 32245  98.6545 178.0112 0097813 355.9473   4.0932 14.76843452660407"}}, "geometry": {"type": "Point", "coordinates": [175.30569439133035, 27.39013178349536]}}, {"type": "Feature", "properties": {"norad_id": 32304, "name": "FENGYUN 1C DEB", "group": "fengyun-1c-debris", "lat": -68.76864451278522, "lon": -36.54782896012099, "alt_km": 710.337131326316, "timestamp": "2025-12-09T23:33:24.141142+00:00", "meta": {"OBJECT_NAME": "FENGYUN 1C DEB", "OBJECT_ID": "1999-025CWV", "EPOCH": "2025-12-03T02:19:20.087328", "MEAN_MOTION": 14.50391603, "ECCENTRICITY": 0.00495576, "INCLINATION": 99.3949, "RA_OF_ASC_NODE": 290.5539, "ARG_OF_PERICENTER": 255.7789, "MEAN_ANOMALY": 103.7894, "EPHEMERIS_TYPE": 0, "CLASSIFICATION_TYPE": "U", "NORAD_CAT_ID": 32304, "ELEMENT_SET_NO": 999, "REV_AT_EPOCH": 56133, "BSTAR": 0.0019806873, "MEAN_MOTION_DOT": 7.809e-05, "MEAN_MOTION_DDOT": 0}, "tle": {"line1": "1 32304U 99025CWV 25337.09676027  .00007809  00000+0  19807-2 0  9994", "line2": "2 32304  99.3949 290.5539 0049557 255.7789 103.7894 14.50391603561335"}}, "geometry": {"type": "Point", "coordinates": [-36.54782896012099, -68.76864451278522]}}, {"type": "Feature", "properties": {"norad_id": 32308, "name": "FENGYUN 1C DEB", "group": "fengyun-1c-debris", "lat": -79.03963871967228, "lon": 82.14482363173312, "alt_km": 951.139984179038, "timestamp": "2025-12-09T23:33:24.141153+00:00", "meta": {"OBJECT_NAME": "FENGYUN 1C DEB", "OBJECT_ID": "1999-025CWZ", "EPOCH": "2025-12-06T13:56:17.681280", "MEAN_MOTION": 14.05453804, "ECCENTRICITY": 0.01091821, "INCLINATION": 97.7755, "RA_OF_ASC_NODE": 34.3534, "ARG_OF_PERICENTER": 78.3987, "MEAN_ANOMALY": 282.9416, "EPHEMERIS_TYPE": 0, "CLASSIFICATION_TYPE": "U", "NORAD_CAT_ID": 32308, "ELEMENT_SET_NO": 999, "REV_AT_EPOCH": 65325, "BSTAR": 0.0028488037, "MEAN_MOTION_DOT": 4.847e-05, "MEAN_MOTION_DDOT": 0}, "tle": {"line1": "1 32308U 99025CWZ 25340.58076020  .00004847  00000+0  28488-2 0  9997", "line2": "2 32308  97.7755  34.3534 0109182  78.3987 282.9416 14.05453804653250"}}, "geometry": {"type": "Point", "coordinates": [82.14482363173312, -79.03963871967228]}}, {"type": "Feature", "properties": {"norad_id": 32314, "name": "FENGYUN 1C DEB", "group": "fengyun-1c-debris", "lat": 57.741975358393034, "lon": -76.94399000074569, "alt_km": 551.3470314600918, "timestamp": "2025-12-09T23:33:24.141169+00:00", "meta": {"OBJECT_NAME": "FENGYUN 1C DEB", "OBJECT_ID": "1999-025CXF", "EPOCH": "2025-12-09T13:16:04.146528", "MEAN_MOTION": 14.79358552, "ECCENTRICITY": 0.01493914, "INCLINATION": 98.8627, "RA_OF_ASC_NODE": 88.2704, "ARG_OF_PERICENTER": 167.7932, "MEAN_ANOMALY": 192.6962, "EPHEMERIS_TYPE": 0, "CLASSIFICATION_TYPE": "U", "NORAD_CAT_ID": 32314, "ELEMENT_SET_NO": 999, "REV_AT_EPOCH": 97383, "BSTAR": 0.0023179094, "MEAN_MOTION_DOT": 0.00020854, "MEAN_MOTION_DDOT": 0}, "tle": {"line1": "1 32314U 99025CXF 25343.55282577  .00020854  00000+0  23179-2 0  9998", "line2": "2 32314  98.8627  88.2704 0149391 167.7932 192.6962 14.79358552973830"}}, "geometry": {"type": "Point", "coordinates": [-76.94399000074569, 57.741975358393034]}}, {"type": "Feature", "properties": {"norad_id": 32315, "name": "FENGYUN 1C DEB", "group": "fengyun-1c-debris", "lat": -70.69850949505103, "lon": -86.23032514717606, "alt_km": 1133.0492026003603, "timestamp": "2025-12-09T23:33:24.141180+00:00", "meta": {"OBJECT_NAME": "FENGYUN 1C DEB", "OBJECT_ID": "1999-025CXG", "EPOCH": "2025-11-20T16:04:27.676128", "MEAN_MOTION": 13.66155502, "ECCENTRICITY": 0.02289149, "INCLINATION": 100.8052, "RA_OF_ASC_NODE": 105.2905, "ARG_OF_PERICENTER": 168.6, "MEAN_ANOMALY": 192.0449, "EPHEMERIS_TYPE": 0, "CLASSIFICATION_TYPE": "U", "NORAD_CAT_ID": 32315, "ELEMENT_SET_NO": 999, "REV_AT_EPOCH": 60787, "BSTAR": 0.00024184327, "MEAN_MOTION_DOT": 1.85e-06, "MEAN_MOTION_DDOT": 0}, "tle": {"line1": "1 32315U 99025CXG 25324.66976477  .00000185  00000+0  24184-3 0  9992", "line2": "2 32315 100.8052 105.2905 0228914 168.6000 192.0449 13.66155502607872"}}, "geometry": {"type": "Point", "coordinates": [-86.23032514717606, -70.69850949505103]}}, {"type": "Feature", "properties": {"norad_id": 32316, "name": "FENGYUN 1C DEB", "group": "fengyun-1c-debris", "lat": 46.083784332512785, "lon": 0.029193906877228712, "alt_km": 708.9237384037133, "timestamp": "2025-12-09T23:33:24.141190+00:00", "meta": {"OBJECT_NAME": "FENGYUN 1C DEB", "OBJECT_ID": "1999-025CXH", "EPOCH": "2025-12-08T20:03:01.939104", "MEAN_MOTION": 14.51782833, "ECCENTRICITY": 0.00265331, "INCLINATION": 99.5289, "RA_OF_ASC_NODE": 8.7775, "ARG_OF_PERICENTER": 341.2638, "MEAN_ANOMALY": 198.8377, "EPHEMERIS_TYPE": 0, "CLASSIFICATION_TYPE": "U", "NORAD_CAT_ID": 32316, "ELEMENT_SET_NO": 999, "REV_AT_EPOCH": 95720, "BSTAR": 0.0028953456, "MEAN_MOTION_DOT": 0.00011659, "MEAN_MOTION_DDOT": 0}, "tle": {"line1": "1 32316U 99025CXH 25342.83543911  .00011659  00000+0  28953-2 0  9990", "line2": "2 32316  99.5289   8.7775 0026533 341.2638 198.8377 14.51782833957207"}}, "geometry": {"type": "Point", "coordinates": [0.029193906877228712, 46.083784332512785]}}, {"type": "Feature", "properties": {"norad_id": 32320, "name": "FENGYUN 1C DEB", "group": "fengyun-1c-debris", "lat": 63.464003767608446, "lon": 42.02777459541385, "alt_km": 744.298729375846, "timestamp": "2025-12-09T23:33:24.141200+00:00", "meta": {"OBJECT_NAME": "FENGYUN 1C DEB", "OBJECT_ID": "1999-025CXM", "EPOCH": "2025-12-06T08:04:56.354304", "MEAN_MOTION": 14.36096557, "ECCENTRICITY": 0.00560395, "INCLINATION": 100.3737, "RA_OF_ASC_NODE": 196.129, "ARG_OF_PERICENTER": 65.6155, "MEAN_ANOMALY": 295.0859, "EPHEMERIS_TYPE": 0, "CLASSIFICATION_TYPE": "U", "NORAD_CAT_ID": 32320, "ELEMENT_SET_NO": 999, "REV_AT_EPOCH": 62081, "BSTAR": 0.001523428, "MEAN_MOTION_DOT": 4.459e-05, "MEAN_MOTION_DDOT": 0}, "tle": {"line1": "1 32320U 99025CXM 25340.33676336  .00004459  00000+0  15234-2 0  9994", "line2": "2 32320 100.3737 196.1290 0056039  65.6155 295.0859 14.36096557620813"}}, "geometry": {"type": "Point", "coordinates": [42.02777459541385, 63.464003767608446]}}, {"type": "Feature", "properties": {"norad_id": 32322, "name": "FENGYUN 1C DEB", "group": "fengyun-1c-debris", "lat": 41.922495549896425, "lon": 54.17752873144583, "alt_km": 859.6139200775915, "timestamp": "2025-12-09T23:33:24.141213+00:00", "meta": {"OBJECT_NAME": "FENGYUN 1C DEB", "OBJECT_ID": "1999-025CXP", "EPOCH": "2025-12-08T21:42:27.593856", "MEAN_MOTION": 13.34125236, "ECCENTRICITY": 0.0418921, "INCLINATION": 98.3703, "RA_OF_ASC_NODE": 225.6967, "ARG_OF_PERICENTER": 107.3236, "MEAN_ANOMALY": 257.4162, "EPHEMERIS_TYPE": 0, "CLASSIFICATION_TYPE": "U", "NORAD_CAT_ID": 32322, "ELEMENT_SET_NO": 999, "REV_AT_EPOCH": 60328, "BSTAR": 0.0014414, "MEAN_MOTION_DOT": 1.148e-05, "MEAN_MOTION_DDOT": 0}, "tle": {"line1": "1 32322U 99025CXP 25342.90448604  .00001148  00000+0  14414-2 0  9997", "line2": "2 32322  98.3703 225.6967 0418921 107.3236 257.4162 13.34125236603284"}}, "geometry": {"type": "Point", "coordinates": [54.17752873144583, 41.922495549896425]}}]}